TJS-14                  
1 62804U 25017A   26182.97692273  .00000126  00000+0  00000+0 0  9996
2 62804   0.7507 296.6149 0001277 287.4644  66.0106  1.00271314  5418
SPAINSAT NG I           
1 62852U 25021A   26182.96643579  .00000162  00000+0  00000+0 0  9998
2 62852   0.0197  10.1343 0000212  74.8932 211.8855  1.00270990  4138
QZS-6 (MICHIBIKI-6)     
1 62876U 25023A   26182.90545954 -.00000223  00000+0  00000+0 0  9997
2 62876   0.0458 284.0261 0002098 190.3859 222.0399  1.00271965  5097
ZHONGXING-10R           
1 63075U 25036A   26182.93832650 -.00000342  00000+0  00000+0 0  9990
2 63075   0.0584 240.0602 0004126 265.5858 222.6754  1.00271641  5102
TJS-15                  
1 63157U 25045A   26182.78128377 -.00000255  00000+0  00000+0 0  9991
2 63157   0.3036  85.5601 0003856 302.2749 267.5821  1.00275377  4906
TIANLIAN 2-04           
1 63361U 25062A   26182.88554999 -.00000122  00000+0  00000+0 0  9994
2 63361   4.3386 274.2231 0031091   9.9075  34.6623  1.00271323  4759
TJS-16                  
1 63397U 25064A   26182.73531572 -.00000095  00000+0  00000+0 0  9990
2 63397   1.1337  81.3912 0002997 299.6306 324.1025  1.00272115  4539
TJS-17                  
1 63524U 25073A   26182.73519094 -.00000060  00000+0  00000+0 0  9999
2 63524   1.0996  82.5938 0001634 315.9432 310.4593  1.00271053  4438
TIANLIAN 2-05           
1 63662U 25084A   26182.97814236  .00000138  00000+0  00000+0 0  9991
2 63662   4.4156 279.6605 0003373 160.4468 212.5027  1.00276528  4537
TJS-19                  
1 63924U 25097A   26182.76226250 -.00000263  00000+0  00000+0 0  9996
2 63924   3.2626 317.6643 0003366 237.6430 140.2042  1.00272124  4295
CHINASAT 3B             
1 64062U 25106A   26182.90284270 -.00000035  00000+0  00000+0 0  9990
2 64062   0.0214 118.6033 0003716  12.5992 281.0656  1.00270454  4201
SXM-10                  
1 64290U 25122A   26182.91790942 -.00000006  00000+0  00000+0 0  9998
2 64290   0.0187  34.1535 0001727 337.9197 122.1632  1.00270788  3830
COSMOS 2589             
1 64467U 25131A   26182.74652986 -.00000281  00000+0  00000+0 0  9995
2 64467   0.0386 102.5940 0000904 108.6651  75.2864  1.00272767  3701
CHINASAT 9C             
1 64470U 25132A   26182.90676544 -.00000237  00000+0  00000+0 0  9995
2 64470   0.0518 244.7898 0003526 219.2918 234.5031  1.00270684  4298
MTG-S1                  
1 64723U 25143A   26182.86956547  .00000003  00000+0  00000+0 0  9997
2 64723   0.5921 342.0191 0002939 262.8853 347.5974  1.00272479  3563
DROR 1                  
1 64784U 25148A   26182.86887214 -.00000024  00000+0  00000+0 0  9997
2 64784   0.0152   3.8624 0002512  37.6422 187.1903  1.00272327  3440
SHIYAN-29               
1 65486U 25196A   26182.82866877 -.00000269  00000+0  00000+0 0  9999
2 65486  28.8366  18.3507 0013207 174.7940 120.1199  1.00281759  3024
NUSANTARA LIMA (NUSANT*)
1 65588U 25205A   26182.91749187 -.00000347  00000+0  00000+0 0  9994
2 65588   0.0125  79.6224 0000521  57.9739 225.5218  1.00269371  2860
TJS-20                  
1 66142U 25238A   26182.96900001  .00000039  00000+0  00000+0 0  9993
2 66142   5.4377 299.4882 0004758 169.7719 221.9759  1.00271855  2481
CMS-03 (GSAT-7R)        
1 66311U 25249B   26182.95094596 -.00000066  00000+0  00000+0 0  9996
2 66311   0.0589 259.0258 0002086 173.9804 263.3063  1.00271994  2491
VIASAT-3 F2             
1 66454U 25261A   26182.64013308 -.00000223  00000+0  00000+0 0  9991
2 66454   0.0157 201.7583 0000596 328.5968 260.8076  1.00271008  2939
SHIJIAN-28 (SJ-28)      
1 66549U 25277A   26182.79551102 -.00000347  00000+0  00000+0 0  9995
2 66549   4.5022 271.8976 0000635  35.1490  16.0227  1.00270292  2307
TJS-22                  
1 66990U 25290A   26182.83710597  .00000004  00000+0  00000+0 0  9999
2 66990   1.4933 286.7503 0002290 321.7448  39.2292  1.00273451  2175
TJS-23                  
1 67226U 25306A   26182.56272797  .00000031  00000+0  00000+0 0  9995
2 67226   5.5554 297.4129 0004619 185.0367 175.2055  1.00272170  2033
FENGYUN 4C              
1 67246U 25312A   26181.68417231 -.00000312  00000+0  00000+0 0  9993
2 67246   0.0471 163.2991 0000706   4.6384 130.1121  1.00270776  1918
SHIJIAN-29A (SJ-29A)    
1 67302U 25315A   26182.98613694 -.00000059  00000+0  00000+0 0  9992
2 67302   3.4334  94.7649 0003569  25.5013 227.9110  1.00271272  1763
SHIJIAN-29B (SJ-29B)    
1 67403U 25315C   26182.98613645 -.00000059  00000+0  00000+0 0  9990
2 67403   3.4324  94.7577 0004689  40.4930 212.9594  1.00271209  1830
ELEKTRO-L 5             
1 67756U 26028A   26182.01353033 -.00000087  00000+0  00000+0 0  9990
2 67756   0.2279 317.9963 0001814 181.4191 220.5940  1.00272084  1399
JAM-E JAM 1             
1 67757U 26028B   26182.80514397  .00000166  00000+0  00000+0 0  9997
2 67757   0.2315 306.9739 0001201 342.0586 314.7342  1.00268191  1265
ECHOSTAR 25             
1 68126U 26045A   26182.91920942  .00000000  00000+0  00000+0 0  9993
2 68126   0.0206  26.9254 0001742  79.6285  34.3453  1.00269070  1145
TJS-24                  
1 69235U 26116A   26182.98749602 -.00000221  00000+0  00000+0 0  9999
2 69235   0.0474 100.6655 0000323 335.4939 289.6390  1.00274615   372
