OBJECT_NAME,OBJECT_ID,EPOCH,MEAN_MOTION,ECCENTRICITY,INCLINATION,RA_OF_ASC_NODE,ARG_OF_PERICENTER,MEAN_ANOMALY,EPHEMERIS_TYPE,CLASSIFICATION_TYPE,NORAD_CAT_ID,ELEMENT_SET_NO,REV_AT_EPOCH,BSTAR,MEAN_MOTION_DOT,MEAN_MOTION_DDOT
TJS-14,2025-017A,2026-07-01T23:26:46.123872,1.00271314,.00012775,0.7507,296.6149,287.4644,66.0106,0,U,62804,999,541,0,.126E-5,0
SPAINSAT NG I,2025-021A,2026-07-01T23:11:40.052256,1.00270990,.00002124,0.0197,10.1343,74.8932,211.8855,0,U,62852,999,413,0,.162E-5,0
QZS-6 (MICHIBIKI-6),2025-023A,2026-07-01T21:43:51.704256,1.00271965,.00020984,0.0458,284.0261,190.3859,222.0399,0,U,62876,999,509,0,-.223E-5,0
ZHONGXING-10R,2025-036A,2026-07-01T22:31:11.409600,1.00271641,.00041263,0.0584,240.0602,265.5858,222.6754,0,U,63075,999,510,0,-.342E-5,0
TJS-15,2025-045A,2026-07-01T18:45:02.917728,1.00275377,.0003856,0.3036,85.5601,302.2749,267.5821,0,U,63157,999,490,0,-.255E-5,0
TIANLIAN 2-04,2025-062A,2026-07-01T21:15:11.519136,1.00271323,.00310912,4.3386,274.2231,9.9075,34.6623,0,U,63361,999,475,0,-.122E-5,0
TJS-16,2025-064A,2026-07-01T17:38:51.278208,1.00272115,.0002997,1.1337,81.3912,299.6306,324.1025,0,U,63397,999,453,0,-.95E-6,0
TJS-17,2025-073A,2026-07-01T17:38:40.497216,1.00271053,.0001634,1.0996,82.5938,315.9432,310.4593,0,U,63524,999,443,0,-.6E-6,0
TIANLIAN 2-05,2025-084A,2026-07-01T23:28:31.499904,1.00276528,.00033736,4.4156,279.6605,160.4468,212.5027,0,U,63662,999,453,0,.138E-5,0
TJS-19,2025-097A,2026-07-01T18:17:39.480000,1.00272124,.0003366,3.2626,317.6643,237.6430,140.2042,0,U,63924,999,429,0,-.263E-5,0
CHINASAT 3B,2025-106A,2026-07-01T21:40:05.609280,1.00270454,.00037168,0.0214,118.6033,12.5992,281.0656,0,U,64062,999,420,0,-.35E-6,0
SXM-10,2025-122A,2026-07-01T22:01:47.373888,1.00270788,.00017272,0.0187,34.1535,337.9197,122.1632,0,U,64290,999,383,0,-.6E-7,0
COSMOS 2589,2025-131A,2026-07-01T17:55:00.179904,1.00272767,.0000904,0.0386,102.5940,108.6651,75.2864,0,U,64467,999,370,0,-.281E-5,0
CHINASAT 9C,2025-132A,2026-07-01T21:45:44.534016,1.00270684,.00035266,0.0518,244.7898,219.2918,234.5031,0,U,64470,999,429,0,-.237E-5,0
MTG-S1,2025-143A,2026-07-01T20:52:10.456608,1.00272479,.00029391,0.5921,342.0191,262.8853,347.5974,0,U,64723,999,356,0,.3E-7,0
DROR 1,2025-148A,2026-07-01T20:51:10.552896,1.00272327,.00025127,0.0152,3.8624,37.6422,187.1903,0,U,64784,999,344,0,-.24E-6,0
SHIYAN-29,2025-196A,2026-07-01T19:53:16.981728,1.00281759,.00132077,28.8366,18.3507,174.7940,120.1199,0,U,65486,999,302,0,-.269E-5,0
NUSANTARA LIMA (NUSANTARA 5),2025-205A,2026-07-01T22:01:11.297568,1.00269371,.00005218,0.0125,79.6224,57.9739,225.5218,0,U,65588,999,286,0,-.347E-5,0
TJS-20,2025-238A,2026-07-01T23:15:21.600864,1.00271855,.00047585,5.4377,299.4882,169.7719,221.9759,0,U,66142,999,248,0,.39E-6,0
CMS-03 (GSAT-7R),2025-249B,2026-07-01T22:49:21.730944,1.00271994,.00020865,0.0589,259.0258,173.9804,263.3063,0,U,66311,999,249,0,-.66E-6,0
VIASAT-3 F2,2025-261A,2026-07-01T15:21:47.498112,1.00271008,.00005965,0.0157,201.7583,328.5968,260.8076,0,U,66454,999,293,0,-.223E-5,0
SHIJIAN-28 (SJ-28),2025-277A,2026-07-01T19:05:32.152128,1.00270292,.0000635,4.5022,271.8976,35.1490,16.0227,0,U,66549,999,230,0,-.347E-5,0
TJS-22,2025-290A,2026-07-01T20:05:25.955808,1.00273451,.00022905,1.4933,286.7503,321.7448,39.2292,0,U,66990,999,217,0,.4E-7,0
TJS-23,2025-306A,2026-07-01T13:30:19.696608,1.00272170,.00046197,5.5554,297.4129,185.0367,175.2055,0,U,67226,999,203,0,.31E-6,0
FENGYUN 4C,2025-312A,2026-06-30T16:25:12.487584,1.00270776,.00007061,0.0471,163.2991,4.6384,130.1121,0,U,67246,999,191,0,-.312E-5,0
SHIJIAN-29A (SJ-29A),2025-315A,2026-07-01T23:40:02.231616,1.00271272,.00035692,3.4334,94.7649,25.5013,227.9110,0,U,67302,999,176,0,-.59E-6,0
SHIJIAN-29B (SJ-29B),2025-315C,2026-07-01T23:40:02.189280,1.00271209,.00046894,3.4324,94.7577,40.4930,212.9594,0,U,67403,999,183,0,-.59E-6,0
ELEKTRO-L 5,2026-028A,2026-07-01T00:19:29.020512,1.00272084,.00018149,0.2279,317.9963,181.4191,220.5940,0,U,67756,999,139,0,-.87E-6,0
JAM-E JAM 1,2026-028B,2026-07-01T19:19:24.439008,1.00268191,.00012019,0.2315,306.9739,342.0586,314.7342,0,U,67757,999,126,0,.166E-5,0
ECHOSTAR 25,2026-045A,2026-07-01T22:03:39.693888,1.00269070,.0001742,0.0206,26.9254,79.6285,34.3453,0,U,68126,999,114,0,0,0
TJS-24,2026-116A,2026-07-01T23:41:59.656128,1.00274615,.00003234,0.0474,100.6655,335.4939,289.6390,0,U,69235,999,37,0,-.221E-5,0
